{"0":{"id":"1","district_id":"34","name":"Amtali Upazila","bn_name":"?????"},"1":{"id":"2","district_id":"34","name":"Bamna Upazila","bn_name":"?????"},"2":{"id":"3","district_id":"34","name":"Barguna Sadar Upazila","bn_name":"?????? ???"},"3":{"id":"4","district_id":"34","name":"Betagi Upazila","bn_name":"??????"},"4":{"id":"5","district_id":"34","name":"Patharghata Upazila","bn_name":"????????"},"5":{"id":"6","district_id":"34","name":"Taltali Upazila","bn_name":"??????"},"6":{"id":"7","district_id":"35","name":"Muladi Upazila","bn_name":"??????"},"7":{"id":"8","district_id":"35","name":"Babuganj Upazila","bn_name":"????????"},"8":{"id":"9","district_id":"35","name":"Agailjhara Upazila","bn_name":"????????"},"9":{"id":"10","district_id":"35","name":"Barisal Sadar Upazila","bn_name":"?????? ???"},"10":{"id":"11","district_id":"35","name":"Bakerganj Upazila","bn_name":"?????????"},"11":{"id":"12","district_id":"35","name":"Banaripara Upazila","bn_name":"??????????"},"12":{"id":"13","district_id":"35","name":"Gaurnadi Upazila","bn_name":"??????"},"13":{"id":"14","district_id":"35","name":"Hizla Upazila","bn_name":"?????"},"14":{"id":"15","district_id":"35","name":"Mehendiganj Upazila","bn_name":"?????????? "},"15":{"id":"16","district_id":"35","name":"Wazirpur Upazila","bn_name":"?????????"},"16":{"id":"17","district_id":"36","name":"Bhola Sadar Upazila","bn_name":"???? ???"},"17":{"id":"18","district_id":"36","name":"Burhanuddin Upazila","bn_name":"????????????"},"18":{"id":"19","district_id":"36","name":"Char Fasson Upazila","bn_name":"?? ??????"},"19":{"id":"20","district_id":"36","name":"Daulatkhan Upazila","bn_name":"???????"},"20":{"id":"21","district_id":"36","name":"Lalmohan Upazila","bn_name":"???????"},"21":{"id":"22","district_id":"36","name":"Manpura Upazila","bn_name":"??????"},"22":{"id":"23","district_id":"36","name":"Tazumuddin Upazila","bn_name":"???????????"},"23":{"id":"24","district_id":"37","name":"Jhalokati Sadar Upazila","bn_name":"??????? ???"},"24":{"id":"25","district_id":"37","name":"Kathalia Upazila","bn_name":"?????????"},"25":{"id":"26","district_id":"37","name":"Nalchity Upazila","bn_name":"???????"},"26":{"id":"27","district_id":"37","name":"Rajapur Upazila","bn_name":"???????"},"27":{"id":"28","district_id":"38","name":"Bauphal Upazila","bn_name":"?????"},"28":{"id":"29","district_id":"38","name":"Dashmina Upazila","bn_name":"??????"},"29":{"id":"30","district_id":"38","name":"Galachipa Upazila","bn_name":"???????"},"30":{"id":"31","district_id":"38","name":"Kalapara Upazila","bn_name":"????????"},"31":{"id":"32","district_id":"38","name":"Mirzaganj Upazila","bn_name":"?????????? "},"32":{"id":"33","district_id":"38","name":"Patuakhali Sadar Upazila","bn_name":"????????? ???"},"33":{"id":"34","district_id":"38","name":"Dumki Upazila","bn_name":"?????"},"34":{"id":"35","district_id":"38","name":"Rangabali Upazila","bn_name":"??????????"},"35":{"id":"36","district_id":"39","name":"Bhandaria","bn_name":"????????????"},"36":{"id":"37","district_id":"39","name":"Kaukhali","bn_name":"???????"},"37":{"id":"38","district_id":"39","name":"Mathbaria","bn_name":"?????????"},"38":{"id":"39","district_id":"39","name":"Nazirpur","bn_name":"????????"},"39":{"id":"40","district_id":"39","name":"Nesarabad","bn_name":"?????????"},"40":{"id":"41","district_id":"39","name":"Pirojpur Sadar","bn_name":"???????? ???"},"41":{"id":"42","district_id":"39","name":"Zianagar","bn_name":"???????"},"42":{"id":"43","district_id":"40","name":"Bandarban Sadar","bn_name":"???????? ???"},"43":{"id":"44","district_id":"40","name":"Thanchi","bn_name":"?????"},"44":{"id":"45","district_id":"40","name":"Lama","bn_name":"????"},"45":{"id":"46","district_id":"40","name":"Naikhongchhari","bn_name":"???????? "},"46":{"id":"47","district_id":"40","name":"Ali kadam","bn_name":"??? ???"},"47":{"id":"48","district_id":"40","name":"Rowangchhari","bn_name":"???????? "},"48":{"id":"49","district_id":"40","name":"Ruma","bn_name":"????"},"49":{"id":"50","district_id":"41","name":"Brahmanbaria Sadar Upazila","bn_name":"?????????????? ???"},"50":{"id":"51","district_id":"41","name":"Ashuganj Upazila","bn_name":"???????"},"51":{"id":"52","district_id":"41","name":"Nasirnagar Upazila","bn_name":"????? ???"},"52":{"id":"53","district_id":"41","name":"Nabinagar Upazila","bn_name":"??????"},"53":{"id":"54","district_id":"41","name":"Sarail Upazila","bn_name":"?????"},"54":{"id":"55","district_id":"41","name":"Shahbazpur Town","bn_name":"????????? ????"},"55":{"id":"56","district_id":"41","name":"Kasba Upazila","bn_name":"????"},"56":{"id":"57","district_id":"41","name":"Akhaura Upazila","bn_name":"??????"},"57":{"id":"58","district_id":"41","name":"Bancharampur Upazila","bn_name":"????????????"},"58":{"id":"59","district_id":"41","name":"Bijoynagar Upazila","bn_name":"???? ???"},"59":{"id":"60","district_id":"42","name":"Chandpur Sadar","bn_name":"??????? ???"},"60":{"id":"61","district_id":"42","name":"Faridganj","bn_name":"????????"},"61":{"id":"62","district_id":"42","name":"Haimchar","bn_name":"??????"},"62":{"id":"63","district_id":"42","name":"Haziganj","bn_name":"????????"},"63":{"id":"64","district_id":"42","name":"Kachua","bn_name":"?????"},"64":{"id":"65","district_id":"42","name":"Matlab Uttar","bn_name":"???? ?????"},"65":{"id":"66","district_id":"42","name":"Matlab Dakkhin","bn_name":"???? ??????"},"66":{"id":"67","district_id":"42","name":"Shahrasti","bn_name":"?????????"},"67":{"id":"68","district_id":"43","name":"Anwara Upazila","bn_name":"???????"},"68":{"id":"69","district_id":"43","name":"Banshkhali Upazila","bn_name":"???????"},"69":{"id":"70","district_id":"43","name":"Boalkhali Upazila","bn_name":"?????????"},"70":{"id":"71","district_id":"43","name":"Chandanaish Upazila","bn_name":"????????"},"71":{"id":"72","district_id":"43","name":"Fatikchhari Upazila","bn_name":"???????"},"72":{"id":"73","district_id":"43","name":"Hathazari Upazila","bn_name":"?????????"},"73":{"id":"74","district_id":"43","name":"Lohagara Upazila","bn_name":"????????"},"74":{"id":"75","district_id":"43","name":"Mirsharai Upazila","bn_name":"???????"},"75":{"id":"76","district_id":"43","name":"Patiya Upazila","bn_name":"?????"},"76":{"id":"77","district_id":"43","name":"Rangunia Upazila","bn_name":"??????????"},"77":{"id":"78","district_id":"43","name":"Raozan Upazila","bn_name":"??????"},"78":{"id":"79","district_id":"43","name":"Sandwip Upazila","bn_name":"????????"},"79":{"id":"80","district_id":"43","name":"Satkania Upazila","bn_name":"?????????"},"80":{"id":"81","district_id":"43","name":"Sitakunda Upazila","bn_name":"?????????"},"81":{"id":"82","district_id":"44","name":"Barura Upazila","bn_name":"?????"},"82":{"id":"83","district_id":"44","name":"Brahmanpara Upazila","bn_name":"????????????"},"83":{"id":"84","district_id":"44","name":"Burichong Upazila","bn_name":"??????"},"84":{"id":"85","district_id":"44","name":"Chandina Upazila","bn_name":"????????"},"85":{"id":"86","district_id":"44","name":"Chauddagram Upazila","bn_name":"??????????"},"86":{"id":"87","district_id":"44","name":"Daudkandi Upazila","bn_name":"??????????"},"87":{"id":"88","district_id":"44","name":"Debidwar Upazila","bn_name":"?????????"},"88":{"id":"89","district_id":"44","name":"Homna Upazila","bn_name":"?????"},"89":{"id":"90","district_id":"44","name":"Comilla Sadar Upazila","bn_name":"???????? ???"},"90":{"id":"91","district_id":"44","name":"Laksam Upazila","bn_name":"??????"},"91":{"id":"92","district_id":"44","name":"Monohorgonj Upazila","bn_name":"?????????"},"92":{"id":"93","district_id":"44","name":"Meghna Upazila","bn_name":"?????"},"93":{"id":"94","district_id":"44","name":"Muradnagar Upazila","bn_name":"????????"},"94":{"id":"95","district_id":"44","name":"Nangalkot Upazila","bn_name":"??????????"},"95":{"id":"96","district_id":"44","name":"Comilla Sadar South Upazila","bn_name":"???????? ??? ??????"},"96":{"id":"97","district_id":"44","name":"Titas Upazila","bn_name":"?????"},"97":{"id":"98","district_id":"45","name":"Chakaria Upazila","bn_name":"??????"},"98":{"id":"100","district_id":"45","name":"Cox's Bazar Sadar Upazila","bn_name":"???? ????? ???"},"99":{"id":"101","district_id":"45","name":"Kutubdia Upazila","bn_name":"?????????"},"100":{"id":"102","district_id":"45","name":"Maheshkhali Upazila","bn_name":"????????"},"101":{"id":"103","district_id":"45","name":"Ramu Upazila","bn_name":"????"},"102":{"id":"104","district_id":"45","name":"Teknaf Upazila","bn_name":"??????"},"103":{"id":"105","district_id":"45","name":"Ukhia Upazila","bn_name":"?????"},"104":{"id":"106","district_id":"45","name":"Pekua Upazila","bn_name":"??????"},"105":{"id":"107","district_id":"46","name":"Feni Sadar","bn_name":"???? ???"},"106":{"id":"108","district_id":"46","name":"Chagalnaiya","bn_name":"???? ?????"},"107":{"id":"109","district_id":"46","name":"Daganbhyan","bn_name":"?????????"},"108":{"id":"110","district_id":"46","name":"Parshuram","bn_name":"???????"},"109":{"id":"111","district_id":"46","name":"Fhulgazi","bn_name":"???????"},"110":{"id":"112","district_id":"46","name":"Sonagazi","bn_name":"????????"},"111":{"id":"113","district_id":"47","name":"Dighinala Upazila","bn_name":"???????? "},"112":{"id":"114","district_id":"47","name":"Khagrachhari Upazila","bn_name":"????????"},"113":{"id":"115","district_id":"47","name":"Lakshmichhari Upazila","bn_name":"??????????"},"114":{"id":"116","district_id":"47","name":"Mahalchhari Upazila","bn_name":"??????"},"115":{"id":"117","district_id":"47","name":"Manikchhari Upazila","bn_name":"????????"},"116":{"id":"118","district_id":"47","name":"Matiranga Upazila","bn_name":"??????????"},"117":{"id":"119","district_id":"47","name":"Panchhari Upazila","bn_name":"??????"},"118":{"id":"120","district_id":"47","name":"Ramgarh Upazila","bn_name":"?????"},"119":{"id":"121","district_id":"48","name":"Lakshmipur Sadar Upazila","bn_name":"?????????? ???"},"120":{"id":"122","district_id":"48","name":"Raipur Upazila","bn_name":"??????"},"121":{"id":"123","district_id":"48","name":"Ramganj Upazila","bn_name":"???????"},"122":{"id":"124","district_id":"48","name":"Ramgati Upazila","bn_name":"??????"},"123":{"id":"125","district_id":"48","name":"Komol Nagar Upazila","bn_name":"??? ???"},"124":{"id":"126","district_id":"49","name":"Noakhali Sadar Upazila","bn_name":"???????? ???"},"125":{"id":"127","district_id":"49","name":"Begumganj Upazila","bn_name":"????????"},"126":{"id":"128","district_id":"49","name":"Chatkhil Upazila","bn_name":"??????"},"127":{"id":"129","district_id":"49","name":"Companyganj Upazila","bn_name":"????????????"},"128":{"id":"130","district_id":"49","name":"Shenbag Upazila","bn_name":"??????"},"129":{"id":"131","district_id":"49","name":"Hatia Upazila","bn_name":"??????"},"130":{"id":"132","district_id":"49","name":"Kobirhat Upazila","bn_name":"??????? "},"131":{"id":"133","district_id":"49","name":"Sonaimuri Upazila","bn_name":"?????????"},"132":{"id":"134","district_id":"49","name":"Suborno Char Upazila","bn_name":"?????? ?? "},"133":{"id":"135","district_id":"50","name":"Rangamati Sadar Upazila","bn_name":"?????????? ???"},"134":{"id":"136","district_id":"50","name":"Belaichhari Upazila","bn_name":"????????"},"135":{"id":"137","district_id":"50","name":"Bagaichhari Upazila","bn_name":"????????"},"136":{"id":"138","district_id":"50","name":"Barkal Upazila","bn_name":"????"},"137":{"id":"139","district_id":"50","name":"Juraichhari Upazila","bn_name":"????????"},"138":{"id":"140","district_id":"50","name":"Rajasthali Upazila","bn_name":"?????????"},"139":{"id":"141","district_id":"50","name":"Kaptai Upazila","bn_name":"???????"},"140":{"id":"142","district_id":"50","name":"Langadu Upazila","bn_name":"????????"},"141":{"id":"143","district_id":"50","name":"Nannerchar Upazila","bn_name":"????????? "},"142":{"id":"144","district_id":"50","name":"Kaukhali Upazila","bn_name":"???????"},"143":{"id":"145","district_id":"1","name":"Dhamrai Upazila","bn_name":"??????"},"144":{"id":"146","district_id":"1","name":"Dohar Upazila","bn_name":"?????"},"145":{"id":"147","district_id":"1","name":"Keraniganj Upazila","bn_name":"??????????"},"146":{"id":"148","district_id":"1","name":"Nawabganj Upazila","bn_name":"????????"},"147":{"id":"149","district_id":"1","name":"Savar Upazila","bn_name":"?????"},"148":{"id":"150","district_id":"2","name":"Faridpur Sadar Upazila","bn_name":"??????? ???"},"149":{"id":"151","district_id":"2","name":"Boalmari Upazila","bn_name":"?????????"},"150":{"id":"152","district_id":"2","name":"Alfadanga Upazila","bn_name":"??????????"},"151":{"id":"153","district_id":"2","name":"Madhukhali Upazila","bn_name":"???????"},"152":{"id":"154","district_id":"2","name":"Bhanga Upazila","bn_name":"??????"},"153":{"id":"155","district_id":"2","name":"Nagarkanda Upazila","bn_name":"????????"},"154":{"id":"156","district_id":"2","name":"Charbhadrasan Upazila","bn_name":"????????? "},"155":{"id":"157","district_id":"2","name":"Sadarpur Upazila","bn_name":"??????"},"156":{"id":"158","district_id":"2","name":"Shaltha Upazila","bn_name":"?????"},"157":{"id":"159","district_id":"3","name":"Gazipur Sadar-Joydebpur","bn_name":"??????? ???"},"158":{"id":"160","district_id":"3","name":"Kaliakior","bn_name":"?????????"},"159":{"id":"161","district_id":"3","name":"Kapasia","bn_name":"????????"},"160":{"id":"162","district_id":"3","name":"Sripur","bn_name":"???????"},"161":{"id":"163","district_id":"3","name":"Kaliganj","bn_name":"????????"},"162":{"id":"164","district_id":"3","name":"Tongi","bn_name":"?????"},"163":{"id":"165","district_id":"4","name":"Gopalganj Sadar Upazila","bn_name":"????????? ???"},"164":{"id":"166","district_id":"4","name":"Kashiani Upazila","bn_name":"????????"},"165":{"id":"167","district_id":"4","name":"Kotalipara Upazila","bn_name":"??????????"},"166":{"id":"168","district_id":"4","name":"Muksudpur Upazila","bn_name":"?????????"},"167":{"id":"169","district_id":"4","name":"Tungipara Upazila","bn_name":"??????????"},"168":{"id":"170","district_id":"5","name":"Dewanganj Upazila","bn_name":"??????????"},"169":{"id":"171","district_id":"5","name":"Baksiganj Upazila","bn_name":"????????"},"170":{"id":"172","district_id":"5","name":"Islampur Upazila","bn_name":"????????"},"171":{"id":"173","district_id":"5","name":"Jamalpur Sadar Upazila","bn_name":"???????? ???"},"172":{"id":"174","district_id":"5","name":"Madarganj Upazila","bn_name":"?????????"},"173":{"id":"175","district_id":"5","name":"Melandaha Upazila","bn_name":"?????????"},"174":{"id":"176","district_id":"5","name":"Sarishabari Upazila","bn_name":"????????? "},"175":{"id":"177","district_id":"5","name":"Narundi Police I.C","bn_name":"????????"},"176":{"id":"178","district_id":"6","name":"Astagram Upazila","bn_name":"?????????"},"177":{"id":"179","district_id":"6","name":"Bajitpur Upazila","bn_name":"????????"},"178":{"id":"180","district_id":"6","name":"Bhairab Upazila","bn_name":"????"},"179":{"id":"181","district_id":"6","name":"Hossainpur Upazila","bn_name":"???????? "},"180":{"id":"182","district_id":"6","name":"Itna Upazila","bn_name":"????"},"181":{"id":"183","district_id":"6","name":"Karimganj Upazila","bn_name":"????????"},"182":{"id":"184","district_id":"6","name":"Katiadi Upazila","bn_name":"???????"},"183":{"id":"185","district_id":"6","name":"Kishoreganj Sadar Upazila","bn_name":"????????? ???"},"184":{"id":"186","district_id":"6","name":"Kuliarchar Upazila","bn_name":"?????????"},"185":{"id":"187","district_id":"6","name":"Mithamain Upazila","bn_name":"????????"},"186":{"id":"188","district_id":"6","name":"Nikli Upazila","bn_name":"?????"},"187":{"id":"189","district_id":"6","name":"Pakundia Upazila","bn_name":"????????"},"188":{"id":"190","district_id":"6","name":"Tarail Upazila","bn_name":"??????"},"189":{"id":"191","district_id":"7","name":"Madaripur Sadar","bn_name":"????????? ???"},"190":{"id":"192","district_id":"7","name":"Kalkini","bn_name":"???????"},"191":{"id":"193","district_id":"7","name":"Rajoir","bn_name":"?????"},"192":{"id":"194","district_id":"7","name":"Shibchar","bn_name":"?????"},"193":{"id":"195","district_id":"8","name":"Manikganj Sadar Upazila","bn_name":"????????? ???"},"194":{"id":"196","district_id":"8","name":"Singair Upazila","bn_name":"????????"},"195":{"id":"197","district_id":"8","name":"Shibalaya Upazila","bn_name":"??????"},"196":{"id":"198","district_id":"8","name":"Saturia Upazila","bn_name":"????????"},"197":{"id":"199","district_id":"8","name":"Harirampur Upazila","bn_name":"?????????"},"198":{"id":"200","district_id":"8","name":"Ghior Upazila","bn_name":"????"},"199":{"id":"201","district_id":"8","name":"Daulatpur Upazila","bn_name":"???????"},"200":{"id":"202","district_id":"9","name":"Lohajang Upazila","bn_name":"??????"},"201":{"id":"203","district_id":"9","name":"Sreenagar Upazila","bn_name":"???????"},"202":{"id":"204","district_id":"9","name":"Munshiganj Sadar Upazila","bn_name":"?????????? ???"},"203":{"id":"205","district_id":"9","name":"Sirajdikhan Upazila","bn_name":"??????????"},"204":{"id":"206","district_id":"9","name":"Tongibari Upazila","bn_name":"?????????"},"205":{"id":"207","district_id":"9","name":"Gazaria Upazila","bn_name":"???????"},"206":{"id":"208","district_id":"10","name":"Bhaluka","bn_name":"??????"},"207":{"id":"209","district_id":"10","name":"Trishal","bn_name":"???????"},"208":{"id":"210","district_id":"10","name":"Haluaghat","bn_name":"?????????"},"209":{"id":"211","district_id":"10","name":"Muktagachha","bn_name":"??????????"},"210":{"id":"212","district_id":"10","name":"Dhobaura","bn_name":"???????"},"211":{"id":"213","district_id":"10","name":"Fulbaria","bn_name":"?????????"},"212":{"id":"214","district_id":"10","name":"Gaffargaon","bn_name":"???????"},"213":{"id":"215","district_id":"10","name":"Gauripur","bn_name":"???????"},"214":{"id":"216","district_id":"10","name":"Ishwarganj","bn_name":"?????????"},"215":{"id":"217","district_id":"10","name":"Mymensingh Sadar","bn_name":"??????? ???"},"216":{"id":"218","district_id":"10","name":"Nandail","bn_name":"???????"},"217":{"id":"219","district_id":"10","name":"Phulpur","bn_name":"??????"},"218":{"id":"220","district_id":"11","name":"Araihazar Upazila","bn_name":"?????????"},"219":{"id":"221","district_id":"11","name":"Sonargaon Upazila","bn_name":"?????????"},"220":{"id":"222","district_id":"11","name":"Bandar","bn_name":"???????"},"221":{"id":"223","district_id":"11","name":"Naryanganj Sadar Upazila","bn_name":"??????????? ???"},"222":{"id":"224","district_id":"11","name":"Rupganj Upazila","bn_name":"???????"},"223":{"id":"225","district_id":"11","name":"Siddirgonj Upazila","bn_name":"???????????"},"224":{"id":"226","district_id":"12","name":"Belabo Upazila","bn_name":"??????"},"225":{"id":"227","district_id":"12","name":"Monohardi Upazila","bn_name":"???????"},"226":{"id":"228","district_id":"12","name":"Narsingdi Sadar Upazila","bn_name":"??????? ???"},"227":{"id":"229","district_id":"12","name":"Palash Upazila","bn_name":"????"},"228":{"id":"230","district_id":"12","name":"Raipura Upazila, Narsingdi","bn_name":"??????"},"229":{"id":"231","district_id":"12","name":"Shibpur Upazila","bn_name":"??????"},"230":{"id":"232","district_id":"13","name":"Kendua Upazilla","bn_name":"????????"},"231":{"id":"233","district_id":"13","name":"Atpara Upazilla","bn_name":"??????"},"232":{"id":"234","district_id":"13","name":"Barhatta Upazilla","bn_name":"????????"},"233":{"id":"235","district_id":"13","name":"Durgapur Upazilla","bn_name":"?????????"},"234":{"id":"236","district_id":"13","name":"Kalmakanda Upazilla","bn_name":"??????????"},"235":{"id":"237","district_id":"13","name":"Madan Upazilla","bn_name":"???"},"236":{"id":"238","district_id":"13","name":"Mohanganj Upazilla","bn_name":"????????"},"237":{"id":"239","district_id":"13","name":"Netrakona-S Upazilla","bn_name":"????????? ???"},"238":{"id":"240","district_id":"13","name":"Purbadhala Upazilla","bn_name":"????????"},"239":{"id":"241","district_id":"13","name":"Khaliajuri Upazilla","bn_name":"??????????"},"240":{"id":"242","district_id":"14","name":"Baliakandi Upazila","bn_name":"????????????"},"241":{"id":"243","district_id":"14","name":"Goalandaghat Upazila","bn_name":"???????? ???"},"242":{"id":"244","district_id":"14","name":"Pangsha Upazila","bn_name":"?????"},"243":{"id":"245","district_id":"14","name":"Kalukhali Upazila","bn_name":"????????"},"244":{"id":"246","district_id":"14","name":"Rajbari Sadar Upazila","bn_name":"??????? ???"},"245":{"id":"247","district_id":"15","name":"Shariatpur Sadar -Palong","bn_name":"???????? ??? "},"246":{"id":"248","district_id":"15","name":"Damudya Upazila","bn_name":"????????"},"247":{"id":"249","district_id":"15","name":"Naria Upazila","bn_name":"?????"},"248":{"id":"250","district_id":"15","name":"Jajira Upazila","bn_name":"??????"},"249":{"id":"251","district_id":"15","name":"Bhedarganj Upazila","bn_name":"?????????"},"250":{"id":"252","district_id":"15","name":"Gosairhat Upazila","bn_name":"?????? ??? "},"251":{"id":"253","district_id":"16","name":"Jhenaigati Upazila","bn_name":"?????????"},"252":{"id":"254","district_id":"16","name":"Nakla Upazila","bn_name":"?????"},"253":{"id":"255","district_id":"16","name":"Nalitabari Upazila","bn_name":"??????????"},"254":{"id":"256","district_id":"16","name":"Sherpur Sadar Upazila","bn_name":"?????? ???"},"255":{"id":"257","district_id":"16","name":"Sreebardi Upazila","bn_name":"????????"},"256":{"id":"258","district_id":"17","name":"Tangail Sadar Upazila","bn_name":"???????? ???"},"257":{"id":"259","district_id":"17","name":"Sakhipur Upazila","bn_name":"??????"},"258":{"id":"260","district_id":"17","name":"Basail Upazila","bn_name":"?????"},"259":{"id":"261","district_id":"17","name":"Madhupur Upazila","bn_name":"??????"},"260":{"id":"262","district_id":"17","name":"Ghatail Upazila","bn_name":"??????"},"261":{"id":"263","district_id":"17","name":"Kalihati Upazila","bn_name":"????????"},"262":{"id":"264","district_id":"17","name":"Nagarpur Upazila","bn_name":"??????"},"263":{"id":"265","district_id":"17","name":"Mirzapur Upazila","bn_name":"?????????"},"264":{"id":"266","district_id":"17","name":"Gopalpur Upazila","bn_name":"????????"},"265":{"id":"267","district_id":"17","name":"Delduar Upazila","bn_name":"????????"},"266":{"id":"268","district_id":"17","name":"Bhuapur Upazila","bn_name":"???????"},"267":{"id":"269","district_id":"17","name":"Dhanbari Upazila","bn_name":"???????"},"268":{"id":"270","district_id":"55","name":"Bagerhat Sadar Upazila","bn_name":"???????? ???"},"269":{"id":"271","district_id":"55","name":"Chitalmari Upazila","bn_name":"????????"},"270":{"id":"272","district_id":"55","name":"Fakirhat Upazila","bn_name":"???????"},"271":{"id":"273","district_id":"55","name":"Kachua Upazila","bn_name":"?????"},"272":{"id":"274","district_id":"55","name":"Mollahat Upazila","bn_name":"????????? "},"273":{"id":"275","district_id":"55","name":"Mongla Upazila","bn_name":"????"},"274":{"id":"276","district_id":"55","name":"Morrelganj Upazila","bn_name":"????????"},"275":{"id":"277","district_id":"55","name":"Rampal Upazila","bn_name":"??????"},"276":{"id":"278","district_id":"55","name":"Sarankhola Upazila","bn_name":"?????????"},"277":{"id":"279","district_id":"56","name":"Damurhuda Upazila","bn_name":"?????????"},"278":{"id":"280","district_id":"56","name":"Chuadanga-S Upazila","bn_name":"?????????? ???"},"279":{"id":"281","district_id":"56","name":"Jibannagar Upazila","bn_name":"???? ??? "},"280":{"id":"282","district_id":"56","name":"Alamdanga Upazila","bn_name":"?????????"},"281":{"id":"283","district_id":"57","name":"Abhaynagar Upazila","bn_name":"??????"},"282":{"id":"284","district_id":"57","name":"Keshabpur Upazila","bn_name":"???????"},"283":{"id":"285","district_id":"57","name":"Bagherpara Upazila","bn_name":"????? ???? "},"284":{"id":"286","district_id":"57","name":"Jessore Sadar Upazila","bn_name":"???? ???"},"285":{"id":"287","district_id":"57","name":"Chaugachha Upazila","bn_name":"??????"},"286":{"id":"288","district_id":"57","name":"Manirampur Upazila","bn_name":"????????? "},"287":{"id":"289","district_id":"57","name":"Jhikargachha Upazila","bn_name":"????????"},"288":{"id":"290","district_id":"57","name":"Sharsha Upazila","bn_name":"?????"},"289":{"id":"291","district_id":"58","name":"Jhenaidah Sadar Upazila","bn_name":"??????? ???"},"290":{"id":"292","district_id":"58","name":"Maheshpur Upazila","bn_name":"???????"},"291":{"id":"293","district_id":"58","name":"Kaliganj Upazila","bn_name":"????????"},"292":{"id":"294","district_id":"58","name":"Kotchandpur Upazila","bn_name":"??? ??????? "},"293":{"id":"295","district_id":"58","name":"Shailkupa Upazila","bn_name":"???????"},"294":{"id":"296","district_id":"58","name":"Harinakunda Upazila","bn_name":"????????????"},"295":{"id":"297","district_id":"59","name":"Terokhada Upazila","bn_name":"????????"},"296":{"id":"298","district_id":"59","name":"Batiaghata Upazila","bn_name":"?????????? "},"297":{"id":"299","district_id":"59","name":"Dacope Upazila","bn_name":"?????"},"298":{"id":"300","district_id":"59","name":"Dumuria Upazila","bn_name":"????????"},"299":{"id":"301","district_id":"59","name":"Dighalia Upazila","bn_name":"???????"},"300":{"id":"302","district_id":"59","name":"Koyra Upazila","bn_name":"????"},"301":{"id":"303","district_id":"59","name":"Paikgachha Upazila","bn_name":"????????"},"302":{"id":"304","district_id":"59","name":"Phultala Upazila","bn_name":"??????"},"303":{"id":"305","district_id":"59","name":"Rupsa Upazila","bn_name":"?????"},"304":{"id":"306","district_id":"60","name":"Kushtia Sadar","bn_name":"???????? ???"},"305":{"id":"307","district_id":"60","name":"Kumarkhali","bn_name":"?????????"},"306":{"id":"308","district_id":"60","name":"Daulatpur","bn_name":"???????"},"307":{"id":"309","district_id":"60","name":"Mirpur","bn_name":"??????"},"308":{"id":"310","district_id":"60","name":"Bheramara","bn_name":"????????"},"309":{"id":"311","district_id":"60","name":"Khoksa","bn_name":"?????"},"310":{"id":"312","district_id":"61","name":"Magura Sadar Upazila","bn_name":"?????? ???"},"311":{"id":"313","district_id":"61","name":"Mohammadpur Upazila","bn_name":"????????????"},"312":{"id":"314","district_id":"61","name":"Shalikha Upazila","bn_name":"??????"},"313":{"id":"315","district_id":"61","name":"Sreepur Upazila","bn_name":"???????"},"314":{"id":"316","district_id":"62","name":"angni Upazila","bn_name":"????"},"315":{"id":"317","district_id":"62","name":"Mujib Nagar Upazila","bn_name":"????? ???"},"316":{"id":"318","district_id":"62","name":"Meherpur-S Upazila","bn_name":"???????? ???"},"317":{"id":"319","district_id":"63","name":"Narail-S Upazilla","bn_name":"????? ???"},"318":{"id":"320","district_id":"63","name":"Lohagara Upazilla","bn_name":"????????"},"319":{"id":"321","district_id":"63","name":"Kalia Upazilla","bn_name":"??????"},"320":{"id":"322","district_id":"64","name":"Satkhira Sadar Upazila","bn_name":"????????? ???"},"321":{"id":"323","district_id":"64","name":"Assasuni Upazila","bn_name":"???????? "},"322":{"id":"324","district_id":"64","name":"Debhata Upazila","bn_name":"??????"},"323":{"id":"325","district_id":"64","name":"Tala Upazila","bn_name":"????"},"324":{"id":"326","district_id":"64","name":"Kalaroa Upazila","bn_name":"??????"},"325":{"id":"327","district_id":"64","name":"Kaliganj Upazila","bn_name":"????????"},"326":{"id":"328","district_id":"64","name":"Shyamnagar Upazila","bn_name":"????????"},"327":{"id":"329","district_id":"18","name":"Adamdighi","bn_name":"???????"},"328":{"id":"330","district_id":"18","name":"Bogra Sadar","bn_name":"????? ???"},"329":{"id":"331","district_id":"18","name":"Sherpur","bn_name":"??????"},"330":{"id":"332","district_id":"18","name":"Dhunat","bn_name":"????"},"331":{"id":"333","district_id":"18","name":"Dhupchanchia","bn_name":"?????????"},"332":{"id":"334","district_id":"18","name":"Gabtali","bn_name":"??????"},"333":{"id":"335","district_id":"18","name":"Kahaloo","bn_name":"??????"},"334":{"id":"336","district_id":"18","name":"Nandigram","bn_name":"??????????"},"335":{"id":"337","district_id":"18","name":"Sahajanpur","bn_name":"???????????"},"336":{"id":"338","district_id":"18","name":"Sariakandi","bn_name":"????????????"},"337":{"id":"339","district_id":"18","name":"Shibganj","bn_name":"???????"},"338":{"id":"340","district_id":"18","name":"Sonatala","bn_name":"???????"},"339":{"id":"341","district_id":"19","name":"Joypurhat S","bn_name":"???????? ???"},"340":{"id":"342","district_id":"19","name":"Akkelpur","bn_name":"?????????"},"341":{"id":"343","district_id":"19","name":"Kalai","bn_name":"?????"},"342":{"id":"344","district_id":"19","name":"Khetlal","bn_name":"??????"},"343":{"id":"345","district_id":"19","name":"Panchbibi","bn_name":"????????"},"344":{"id":"346","district_id":"20","name":"Naogaon Sadar Upazila","bn_name":"????? ???"},"345":{"id":"347","district_id":"20","name":"Mohadevpur Upazila","bn_name":"?????????"},"346":{"id":"348","district_id":"20","name":"Manda Upazila","bn_name":"??????"},"347":{"id":"349","district_id":"20","name":"Niamatpur Upazila","bn_name":"?????????"},"348":{"id":"350","district_id":"20","name":"Atrai Upazila","bn_name":"??????"},"349":{"id":"351","district_id":"20","name":"Raninagar Upazila","bn_name":"???????"},"350":{"id":"352","district_id":"20","name":"Patnitala Upazila","bn_name":"????????"},"351":{"id":"353","district_id":"20","name":"Dhamoirhat Upazila","bn_name":"???????? "},"352":{"id":"354","district_id":"20","name":"Sapahar Upazila","bn_name":"???????"},"353":{"id":"355","district_id":"20","name":"Porsha Upazila","bn_name":"?????"},"354":{"id":"356","district_id":"20","name":"Badalgachhi Upazila","bn_name":"???????"},"355":{"id":"357","district_id":"21","name":"Natore Sadar Upazila","bn_name":"????? ???"},"356":{"id":"358","district_id":"21","name":"Baraigram Upazila","bn_name":"?????????"},"357":{"id":"359","district_id":"21","name":"Bagatipara Upazila","bn_name":"??????????"},"358":{"id":"360","district_id":"21","name":"Lalpur Upazila","bn_name":"??????"},"359":{"id":"361","district_id":"21","name":"Natore Sadar Upazila","bn_name":"????? ???"},"360":{"id":"362","district_id":"21","name":"Baraigram Upazila","bn_name":"???? ?????"},"361":{"id":"363","district_id":"22","name":"Bholahat Upazila","bn_name":"???????"},"362":{"id":"364","district_id":"22","name":"Gomastapur Upazila","bn_name":"??????????"},"363":{"id":"365","district_id":"22","name":"Nachole Upazila","bn_name":"?????"},"364":{"id":"366","district_id":"22","name":"Nawabganj Sadar Upazila","bn_name":"???????? ???"},"365":{"id":"367","district_id":"22","name":"Shibganj Upazila","bn_name":"???????"},"366":{"id":"368","district_id":"23","name":"Atgharia Upazila","bn_name":"???????"},"367":{"id":"369","district_id":"23","name":"Bera Upazila","bn_name":"????"},"368":{"id":"370","district_id":"23","name":"Bhangura Upazila","bn_name":"????????"},"369":{"id":"371","district_id":"23","name":"Chatmohar Upazila","bn_name":"???????"},"370":{"id":"372","district_id":"23","name":"Faridpur Upazila","bn_name":"???????"},"371":{"id":"373","district_id":"23","name":"Ishwardi Upazila","bn_name":"???????"},"372":{"id":"374","district_id":"23","name":"Pabna Sadar Upazila","bn_name":"????? ???"},"373":{"id":"375","district_id":"23","name":"Santhia Upazila","bn_name":"??????"},"374":{"id":"376","district_id":"23","name":"Sujanagar Upazila","bn_name":"???????"},"375":{"id":"377","district_id":"24","name":"Bagha","bn_name":"????"},"376":{"id":"378","district_id":"24","name":"Bagmara","bn_name":"???????"},"377":{"id":"379","district_id":"24","name":"Charghat","bn_name":"??????"},"378":{"id":"380","district_id":"24","name":"Durgapur","bn_name":"?????????"},"379":{"id":"381","district_id":"24","name":"Godagari","bn_name":"????????"},"380":{"id":"382","district_id":"24","name":"Mohanpur","bn_name":"???????"},"381":{"id":"383","district_id":"24","name":"Paba","bn_name":"???"},"382":{"id":"384","district_id":"24","name":"Puthia","bn_name":"??????"},"383":{"id":"385","district_id":"24","name":"Tanore","bn_name":"?????"},"384":{"id":"386","district_id":"25","name":"Sirajganj Sadar Upazila","bn_name":"????????? ???"},"385":{"id":"387","district_id":"25","name":"Belkuchi Upazila","bn_name":"???????"},"386":{"id":"388","district_id":"25","name":"Chauhali Upazila","bn_name":"??????"},"387":{"id":"389","district_id":"25","name":"Kamarkhanda Upazila","bn_name":"???????????"},"388":{"id":"390","district_id":"25","name":"Kazipur Upazila","bn_name":"???????"},"389":{"id":"391","district_id":"25","name":"Raiganj Upazila","bn_name":"???????"},"390":{"id":"392","district_id":"25","name":"Shahjadpur Upazila","bn_name":"?????????"},"391":{"id":"393","district_id":"25","name":"Tarash Upazila","bn_name":"?????"},"392":{"id":"394","district_id":"25","name":"Ullahpara Upazila","bn_name":"?????????"},"393":{"id":"395","district_id":"26","name":"Birampur Upazila","bn_name":"????????"},"394":{"id":"396","district_id":"26","name":"Birganj","bn_name":"???????"},"395":{"id":"397","district_id":"26","name":"Biral Upazila","bn_name":"?????"},"396":{"id":"398","district_id":"26","name":"Bochaganj Upazila","bn_name":"????????"},"397":{"id":"399","district_id":"26","name":"Chirirbandar Upazila","bn_name":"??????????"},"398":{"id":"400","district_id":"26","name":"Phulbari Upazila","bn_name":"???????"},"399":{"id":"401","district_id":"26","name":"Ghoraghat Upazila","bn_name":"???????"},"400":{"id":"402","district_id":"26","name":"Hakimpur Upazila","bn_name":"????????"},"401":{"id":"403","district_id":"26","name":"Kaharole Upazila","bn_name":"???????"},"402":{"id":"404","district_id":"26","name":"Khansama Upazila","bn_name":"???????"},"403":{"id":"405","district_id":"26","name":"Dinajpur Sadar Upazila","bn_name":"???????? ???"},"404":{"id":"406","district_id":"26","name":"Nawabganj","bn_name":"????????"},"405":{"id":"407","district_id":"26","name":"Parbatipur Upazila","bn_name":"??????????"},"406":{"id":"408","district_id":"27","name":"Fulchhari","bn_name":"??????"},"407":{"id":"409","district_id":"27","name":"Gaibandha sadar","bn_name":"????????? ???"},"408":{"id":"410","district_id":"27","name":"Gobindaganj","bn_name":"???????????"},"409":{"id":"411","district_id":"27","name":"Palashbari","bn_name":"????????"},"410":{"id":"412","district_id":"27","name":"Sadullapur","bn_name":"???????????"},"411":{"id":"413","district_id":"27","name":"Saghata","bn_name":"??????"},"412":{"id":"414","district_id":"27","name":"Sundarganj","bn_name":"??????????"},"413":{"id":"415","district_id":"28","name":"Kurigram Sadar","bn_name":"????????? ???"},"414":{"id":"416","district_id":"28","name":"Nageshwari","bn_name":"?????????"},"415":{"id":"417","district_id":"28","name":"Bhurungamari","bn_name":"????????????"},"416":{"id":"418","district_id":"28","name":"Phulbari","bn_name":"???????"},"417":{"id":"419","district_id":"28","name":"Rajarhat","bn_name":"????????"},"418":{"id":"420","district_id":"28","name":"Ulipur","bn_name":"??????"},"419":{"id":"421","district_id":"28","name":"Chilmari","bn_name":"???????"},"420":{"id":"422","district_id":"28","name":"Rowmari","bn_name":"??????"},"421":{"id":"423","district_id":"28","name":"Char Rajibpur","bn_name":"?? ????????"},"422":{"id":"424","district_id":"29","name":"Lalmanirhat Sadar","bn_name":"?????????? ???"},"423":{"id":"425","district_id":"29","name":"Aditmari","bn_name":"????????"},"424":{"id":"426","district_id":"29","name":"Kaliganj","bn_name":"????????"},"425":{"id":"427","district_id":"29","name":"Hatibandha","bn_name":"??????????"},"426":{"id":"428","district_id":"29","name":"Patgram","bn_name":"????????"},"427":{"id":"429","district_id":"30","name":"Nilphamari Sadar","bn_name":"????????? ???"},"428":{"id":"430","district_id":"30","name":"Saidpur","bn_name":"???????"},"429":{"id":"431","district_id":"30","name":"Jaldhaka","bn_name":"??????"},"430":{"id":"432","district_id":"30","name":"Kishoreganj","bn_name":"?????????"},"431":{"id":"433","district_id":"30","name":"Domar","bn_name":"?????"},"432":{"id":"434","district_id":"30","name":"Dimla","bn_name":"?????"},"433":{"id":"435","district_id":"31","name":"Panchagarh Sadar","bn_name":"?????? ???"},"434":{"id":"436","district_id":"31","name":"Debiganj","bn_name":"????????"},"435":{"id":"437","district_id":"31","name":"Boda","bn_name":"????"},"436":{"id":"438","district_id":"31","name":"Atwari","bn_name":"???????"},"437":{"id":"439","district_id":"31","name":"Tetulia","bn_name":"????????"},"438":{"id":"440","district_id":"32","name":"Badarganj","bn_name":"???????"},"439":{"id":"441","district_id":"32","name":"Mithapukur","bn_name":"?????????"},"440":{"id":"442","district_id":"32","name":"Gangachara","bn_name":"????????"},"441":{"id":"443","district_id":"32","name":"Kaunia","bn_name":"???????"},"442":{"id":"444","district_id":"32","name":"Rangpur Sadar","bn_name":"????? ???"},"443":{"id":"445","district_id":"32","name":"Pirgachha","bn_name":"???????"},"444":{"id":"446","district_id":"32","name":"Pirganj","bn_name":"???????"},"445":{"id":"447","district_id":"32","name":"Taraganj","bn_name":"????????"},"446":{"id":"448","district_id":"33","name":"Thakurgaon Sadar Upazila","bn_name":"????????? ???"},"447":{"id":"449","district_id":"33","name":"Pirganj Upazila","bn_name":"???????"},"448":{"id":"450","district_id":"33","name":"Baliadangi Upazila","bn_name":"????????????"},"449":{"id":"451","district_id":"33","name":"Haripur Upazila","bn_name":"??????"},"450":{"id":"452","district_id":"33","name":"Ranisankail Upazila","bn_name":"?????????"},"451":{"id":"453","district_id":"51","name":"Ajmiriganj","bn_name":"??????????"},"452":{"id":"454","district_id":"51","name":"Baniachang","bn_name":"????????"},"453":{"id":"455","district_id":"51","name":"Bahubal","bn_name":"??????"},"454":{"id":"456","district_id":"51","name":"Chunarughat","bn_name":"?????????"},"455":{"id":"457","district_id":"51","name":"Habiganj Sadar","bn_name":"??????? ???"},"456":{"id":"458","district_id":"51","name":"Lakhai","bn_name":"???????"},"457":{"id":"459","district_id":"51","name":"Madhabpur","bn_name":"???????"},"458":{"id":"460","district_id":"51","name":"Nabiganj","bn_name":"???????"},"459":{"id":"461","district_id":"51","name":"Shaistagonj Upazila","bn_name":"????????????"},"460":{"id":"462","district_id":"52","name":"Moulvibazar Sadar","bn_name":"??????????"},"461":{"id":"463","district_id":"52","name":"Barlekha","bn_name":"??????"},"462":{"id":"464","district_id":"52","name":"Juri","bn_name":"????"},"463":{"id":"465","district_id":"52","name":"Kamalganj","bn_name":"?????????"},"464":{"id":"466","district_id":"52","name":"Kulaura","bn_name":"???????"},"465":{"id":"467","district_id":"52","name":"Rajnagar","bn_name":"??????"},"466":{"id":"468","district_id":"52","name":"Sreemangal","bn_name":"?????????"},"467":{"id":"469","district_id":"53","name":"Bishwamvarpur","bn_name":"????????????"},"468":{"id":"470","district_id":"53","name":"Chhatak","bn_name":"????"},"469":{"id":"471","district_id":"53","name":"Derai","bn_name":"?????"},"470":{"id":"472","district_id":"53","name":"Dharampasha","bn_name":"???????"},"471":{"id":"473","district_id":"53","name":"Dowarabazar","bn_name":"???????????"},"472":{"id":"474","district_id":"53","name":"Jagannathpur","bn_name":"??????????"},"473":{"id":"475","district_id":"53","name":"Jamalganj","bn_name":"?????????"},"474":{"id":"476","district_id":"53","name":"Sulla","bn_name":"??????"},"475":{"id":"477","district_id":"53","name":"Sunamganj Sadar","bn_name":"????????? ???"},"476":{"id":"478","district_id":"53","name":"Shanthiganj","bn_name":"??????????"},"477":{"id":"479","district_id":"53","name":"Tahirpur","bn_name":"????????"},"478":{"id":"480","district_id":"54","name":"Sylhet Sadar","bn_name":"????? ???"},"479":{"id":"481","district_id":"54","name":"Beanibazar","bn_name":"???????????"},"480":{"id":"482","district_id":"54","name":"Bishwanath","bn_name":"????????"},"481":{"id":"483","district_id":"54","name":"Dakshin Surma Upazila","bn_name":"?????? ?????"},"482":{"id":"484","district_id":"54","name":"Balaganj","bn_name":"????????"},"483":{"id":"485","district_id":"54","name":"Companiganj","bn_name":"????????????"},"484":{"id":"486","district_id":"54","name":"Fenchuganj","bn_name":"??????????"},"485":{"id":"487","district_id":"54","name":"Golapganj","bn_name":"?????????"},"486":{"id":"488","district_id":"54","name":"Gowainghat","bn_name":"?????????"},"487":{"id":"489","district_id":"54","name":"Jaintiapur","bn_name":"????????"},"488":{"id":"490","district_id":"54","name":"Kanaighat","bn_name":"????????"},"489":{"id":"491","district_id":"54","name":"Zakiganj","bn_name":"????????"},"490":{"id":"492","district_id":"54","name":"Nobigonj","bn_name":"???????"}}